#cP2024  2  5  6  0  0.00000000     577 d+D   IGS20 EXT AIUB
## 2300 108000.00000000   300.00000000 60345 0.2500000000000
+   77   G01G02G03G05G06G07G08G09G10G11G12G13G14G15G16G17G18
+        G19G20G21G22G23G24G25G26G27G28G29G30G31G32R01R02R03
+        R04R05R07R08R09R11R12R13R14R15R16R17R18R19R20R21R22
+        R24E02E03E04E05E07E08E09E10E11E12E13E14E15E18E19E21
+        E24E25E26E27E30E31E33E34E36  0  0  0  0  0  0  0  0
++         6  7  6  7  6  7  6  6  6  7  7  7  6  6  7  7  7
++         7  7  7  7  6  6  6  6  6  6  7  6  7  6  9  7  8
++         8  8  8  8  6  6  6  7  7  6  7  9  8  9 10  8  6
++         9  6  7  7  7  7  7  7  7  6  7  6  6  7  7  7  6
++         5  6  7  5  6  6  7  7  8  0  0  0  0  0  0  0  0
%c M  cc GPS ccc cccc cccc cccc cccc ccccc ccccc ccccc ccccc
%c cc cc ccc ccc cccc cccc cccc cccc ccccc ccccc ccccc ccccc
%f  1.2500000  1.025000000  0.00000000000  0.000000000000000
%f  0.0000000  0.000000000  0.00000000000  0.000000000000000
%i    0    0    0    0      0      0      0      0         0
%i    0    0    0    0      0      0      0      0         0
/* Center for Orbit Determination in Europe (CODE)          
/* Ultra-rapid GRE orbits starting year-day 24036 06 hour   
/* Observed/predicted: 25/23 hours (data used up to 037G)   
/* PCV:IGS20      OL/AL:FES2014b NONE     YN ORB:CoN CLK:BRD
*  2024  2  6 23 15  0.00000000
PG01  17264.534327   4450.796874  19465.106050    168.560463               P   P
PG02  20004.953597  10211.606171  14872.637819   -489.412077               P   P
PG03  16634.083964  -1829.703752  20454.090964    176.619792               P   P
PG05 -11276.179143 -10746.981668 -21672.514631   -160.834399               P   P
PG06  -3638.608031 -22938.215282  12853.736412    416.988869               P   P
PG07  12147.789303  -9243.244535 -21226.373146    -55.791467               P   P
PG08  23845.591569   6258.998683 -10516.802408   -165.778889               P   P
PG09  23214.577810  -8133.424811 -10178.531417     83.636851               P   P
PG10 -10073.507905  24048.862225   4244.169636    -72.295423               P   P
PG11 -11558.518880 -23886.909658   1654.803786   -567.012368               P   P
PG12 -16917.337632    300.435061  20170.695329   -475.451029               P   P
PG13 -16406.778762 -13322.237241 -16423.463879    623.146494               P   P
PG14  13181.660823 -22937.492775    388.691925    318.970482               P   P
PG15 -24121.952489  -4197.232519 -11033.115598    125.048272               P   P
PG16   5662.165529  16647.666984 -20099.075288   -368.219781               P   P
PG17  12706.740081 -13024.895144  19826.649390    717.769362               P   P
PG18 -10963.711344  10531.285933 -21746.430595   -549.848776               P   P
PG19   2159.347761 -14780.546991  21764.990688    437.102720               P   P
PG20  -3430.838171 -21969.544875 -14588.820316    388.464778               P   P
PG21  20105.626650  15029.612212  10540.681549    135.841388               P   P
PG22   8826.966328 -23813.277063   8698.213319     35.457695               P   P
PG23 -16208.298510  19205.396545  -8272.714624    150.791011               P   P
PG24 -20188.113239 -12412.618572  11987.064954   -427.421179               P   P
PG25 -18214.929089  12089.232074  14551.932638    487.788785               P   P
PG26   -713.363533  23444.431887 -12247.620647    192.889611               P   P
PG27  13608.027561  12989.427033 -19190.262479     -1.730444               P   P
PG28   1943.401338  21966.283742  14783.984004   -122.582988               P   P
PG29 -24558.343006   4787.251616  -9109.232966   -607.445175               P   P
PG30   4072.007711 -18947.935940 -17918.713242   -435.892798               P   P
PG31   8630.006364  24034.160350   6278.059813   -227.678289               P   P
PG32  -8236.826232  14674.243549  20698.645251   -610.166262               P   P
PR01 -19642.663320  13690.510174   8818.699750     76.494232               P   P
PR02  -5113.245303  12946.976001  21406.624493    -22.473047               P   P
PR03  12724.248396   5516.855155  21473.190821     94.010495               P   P
PR04  23064.800413  -4673.346389   9894.583595    222.314921               P   P
PR05  21205.784954 -12322.399446  -7044.653683    126.483058               P   P
PR07 -13398.158852  -5026.241857 -21057.884595     75.292922               P   P
PR08 -23085.682522   4997.085266  -9521.023627    -74.283655               P   P
PR09   1158.969968 -25353.490700   2108.106988    168.634148               P   P
PR11 -10899.232614  -1077.358432  23041.472436     35.173644               P   P
PR12  -9282.678248  18507.747883  14903.310311     36.441954               P   P
PR13  -2693.239139  25360.792682    275.850429    -44.097131               P   P
PR14   6670.836374  17438.834526 -17384.173974     26.023015               P   P
PR15  11165.634503   -468.675404 -22918.286796     82.440534               P   P
PR16   9158.861154 -18340.423772 -15156.840556     23.087095               P   P
PR17  19121.090277  16484.646875  -3516.585174     59.100822               P   P
PR18  20429.652926   8577.637786  12707.844242    126.043483               P   P
PR19  12666.598238  -2279.718000  22027.168989   -264.844832               P   P
PR20  -5584.405633 -15747.809469  19267.202084   -107.881785               P   P
PR21 -19137.762191 -16568.921927   3230.154843    -74.943686               P   P
PR22 -20025.995120  -8223.764379 -13447.429420    106.887537               P   P
PR24   6551.270897  16032.139624 -18703.787510    -42.867851               P   P
PE02  12443.557707 -26604.010917   3766.967943    101.289808               P   P
PE03  10050.399646 -15981.892175 -22797.966528    -92.101612               P   P
PE04  12790.621676  15248.241884  21919.200135   -321.321682               P   P
PE05  26721.411377  -7386.365837 -10371.210679   4717.560844               P   P
PE07 -27727.702510  -5838.678945  -8562.970376   -102.415295               P   P
PE08 -12067.030023 -15303.193862 -22280.298788   -219.883899               P   P
PE09  27667.288477   5859.798925   8724.531458   -326.863622               P   P
PE10  18235.167161  22251.915063   6968.223663   -599.963363               P   P
PE11  20348.891881  14137.451904  16203.611288   3259.725115               P   P
PE12  13569.318369  26223.659985  -2264.287373   -895.354640               P   P
PE13 -20285.697288 -14744.410439 -15705.867907    -20.099007               P   P
PE14   -542.211994 -16277.744520  19240.663682 999999.999999               P   P
PE15 -13251.098730 -26309.813157   2840.039659    -84.373019               P   P
PE18 -10645.894096  18604.066905 -22663.546337 999999.999999               P   P
PE19 -12567.870330  15235.372471  22054.721734   -664.585835               P   P
PE21 -20423.119380  16422.491735  13745.223059   -577.713242               P   P
PE24  16771.954685   4310.832722 -24031.041618   -584.087993               P   P
PE25  20488.315498 -16089.350643 -14068.303161      0.538014               P   P
PE26 -15140.378344   5994.348004 -24708.007217    361.337770               P   P
PE27 -16904.986665  -3835.614677  23985.436899   -268.304873               P   P
PE30  -3221.776140 -21774.737878  19781.894020   -886.149366               P   P
PE31   3478.367795  21569.951447 -19966.928850    -15.427689               P   P
PE33  -1877.707782  21949.364253 -19763.110181      7.169774               P   P
PE34   1393.669311 -22292.292365  19425.813575    -93.213137               P   P
PE36  15359.510758  -5229.715854  24765.138672   -182.361339               P   P
EOF
